start=new Date('2021-09-14T00:00:00.000Z').valueOf();
sats=[{"TLE_LINE2":"2 48017  53.0535 113.8617 0002360  70.2753 251.8009 15.06391488  3592","ECCENTRICITY":"0.00023600","APOAPSIS":"548.874","MEAN_MOTION":"15.06391488","RCS_SIZE":"LARGE","EPOCH":"2021-09-13T22:00:01.999584","DECAY_DATE":null,"MEAN_ELEMENT_THEORY":"SGP4","PERIAPSIS":"545.605","OBJECT_TYPE":"PAYLOAD","GP_ID":"184664349","OBJECT_NAME":"STARLINK-2239","TIME_SYSTEM":"UTC","REV_AT_EPOCH":"359","OBJECT_ID":"2021-024AS","NORAD_CAT_ID":"48017","CENTER_NAME":"EARTH","MEAN_MOTION_DDOT":"0.0000000000000","ELEMENT_SET_NO":"999","RA_OF_ASC_NODE":"113.8617","COUNTRY_CODE":"US","FILE":"3115005","ARG_OF_PERICENTER":"70.2753","MEAN_MOTION_DOT":"-0.00001742","REF_FRAME":"TEME","SEMIMAJOR_AXIS":"6925.375","EPHEMERIS_TYPE":"0","MEAN_ANOMALY":"251.8009","INCLINATION":"53.0535","TLE_LINE1":"1 48017U 21024AS  21256.91668981 -.00001742  00000-0 -98061-4 0  9997","SITE":"AFETR","PERIOD":"95.593","CLASSIFICATION_TYPE":"U","LAUNCH_DATE":"2021-03-24","BSTAR":"-0.00009806100000"},{"CENTER_NAME":"EARTH","NORAD_CAT_ID":"48018","OBJECT_ID":"2021-024AT","ARG_OF_PERICENTER":"73.5314","FILE":"3115005","ELEMENT_SET_NO":"999","COUNTRY_CODE":"US","RA_OF_ASC_NODE":"113.5374","MEAN_MOTION_DDOT":"0.0000000000000","REF_FRAME":"TEME","SEMIMAJOR_AXIS":"6927.846","MEAN_ANOMALY":"150.0056","EPHEMERIS_TYPE":"0","MEAN_MOTION_DOT":"0.00000739","LAUNCH_DATE":"2021-03-24","BSTAR":"0.00006989300000","CLASSIFICATION_TYPE":"U","PERIOD":"95.644","TLE_LINE1":"1 48018U 21024AT  21256.91668981  .00000739  00000-0  69893-4 0  9992","SITE":"AFETR","INCLINATION":"53.0486","ECCENTRICITY":"0.00024640","TLE_LINE2":"2 48018  53.0486 113.5374 0002464  73.5314 150.0056 15.05585655  3603","MEAN_MOTION":"15.05585655","APOAPSIS":"551.418","MEAN_ELEMENT_THEORY":"SGP4","RCS_SIZE":"LARGE","EPOCH":"2021-09-13T22:00:01.999584","DECAY_DATE":null,"REV_AT_EPOCH":"360","OBJECT_NAME":"STARLINK-2282","TIME_SYSTEM":"UTC","GP_ID":"184664082","PERIAPSIS":"548.004","OBJECT_TYPE":"PAYLOAD"},{"ECCENTRICITY":"0.00020330","TLE_LINE2":"2 48019  53.0560 103.8552 0002033  86.2159 125.8154 15.06401092  3610","MEAN_MOTION":"15.06401092","APOAPSIS":"548.618","MEAN_ELEMENT_THEORY":"SGP4","DECAY_DATE":null,"EPOCH":"2021-09-13T22:00:01.999584","RCS_SIZE":"LARGE","REV_AT_EPOCH":"361","TIME_SYSTEM":"UTC","OBJECT_NAME":"STARLINK-2285","GP_ID":"184662847","OBJECT_TYPE":"PAYLOAD","PERIAPSIS":"545.802","CENTER_NAME":"EARTH","NORAD_CAT_ID":"48019","OBJECT_ID":"2021-024AU","ARG_OF_PERICENTER":"86.2159","FILE":"3115005","RA_OF_ASC_NODE":"103.8552","COUNTRY_CODE":"US","ELEMENT_SET_NO":"999","MEAN_MOTION_DDOT":"0.0000000000000","EPHEMERIS_TYPE":"0","MEAN_ANOMALY":"125.8154","REF_FRAME":"TEME","SEMIMAJOR_AXIS":"6925.345","MEAN_MOTION_DOT":"0.00006779","BSTAR":"0.00047356000000","LAUNCH_DATE":"2021-03-24","CLASSIFICATION_TYPE":"U","PERIOD":"95.592","SITE":"AFETR","TLE_LINE1":"1 48019U 21024AU  21256.91668981  .00006779  00000-0  47356-3 0  9992","INCLINATION":"53.0560"},{"RCS_SIZE":"LARGE","EPOCH":"2021-09-13T22:00:01.999584","DECAY_DATE":null,"MEAN_ELEMENT_THEORY":"SGP4","GP_ID":"184663097","PERIAPSIS":"405.990","OBJECT_TYPE":"PAYLOAD","REV_AT_EPOCH":"371","OBJECT_NAME":"STARLINK-2294","TIME_SYSTEM":"UTC","ECCENTRICITY":"0.00013360","TLE_LINE2":"2 48020  53.0453  62.6928 0001336  45.4962 324.6677 15.53370018  3711","APOAPSIS":"407.803","MEAN_MOTION":"15.53370018","MEAN_MOTION_DOT":"-0.00956284","REF_FRAME":"TEME","SEMIMAJOR_AXIS":"6785.032","EPHEMERIS_TYPE":"0","MEAN_ANOMALY":"324.6677","TLE_LINE1":"1 48020U 21024AV  21256.91668981 -.00956284  00000-0 -16205-1 0  9998","SITE":"AFETR","INCLINATION":"53.0453","LAUNCH_DATE":"2021-03-24","BSTAR":"-0.01620500000000","PERIOD":"92.702","CLASSIFICATION_TYPE":"U","OBJECT_ID":"2021-024AV","CENTER_NAME":"EARTH","NORAD_CAT_ID":"48020","ELEMENT_SET_NO":"999","RA_OF_ASC_NODE":"62.6928","COUNTRY_CODE":"US","MEAN_MOTION_DDOT":"0.0000000000000","FILE":"3115005","ARG_OF_PERICENTER":"45.4962"},{"ECCENTRICITY":"0.00013940","TLE_LINE2":"2 48021  53.0439  64.7740 0001394  59.6685  58.6123 15.31914957  3705","APOAPSIS":"471.056","MEAN_MOTION":"15.31914957","DECAY_DATE":null,"RCS_SIZE":"LARGE","EPOCH":"2021-09-13T22:00:01.999584","MEAN_ELEMENT_THEORY":"SGP4","GP_ID":"184663849","OBJECT_TYPE":"PAYLOAD","PERIAPSIS":"469.147","REV_AT_EPOCH":"370","TIME_SYSTEM":"UTC","OBJECT_NAME":"STARLINK-2301","OBJECT_ID":"2021-024AW","CENTER_NAME":"EARTH","NORAD_CAT_ID":"48021","COUNTRY_CODE":"US","RA_OF_ASC_NODE":"64.7740","ELEMENT_SET_NO":"999","MEAN_MOTION_DDOT":"0.0000000000000","ARG_OF_PERICENTER":"59.6685","FILE":"3115005","MEAN_MOTION_DOT":"-0.01068991","MEAN_ANOMALY":"58.6123","EPHEMERIS_TYPE":"0","SEMIMAJOR_AXIS":"6848.236","REF_FRAME":"TEME","SITE":"AFETR","TLE_LINE1":"1 48021U 21024AW  21256.91668981 -.01068991  00000-0 -37303-1 0  9991","INCLINATION":"53.0439","LAUNCH_DATE":"2021-03-24","BSTAR":"-0.03730300000000","PERIOD":"94.000","CLASSIFICATION_TYPE":"U"},{"OBJECT_ID":"2021-024AX","CENTER_NAME":"EARTH","NORAD_CAT_ID":"48022","ELEMENT_SET_NO":"999","RA_OF_ASC_NODE":"123.8705","COUNTRY_CODE":"US","MEAN_MOTION_DDOT":"0.0000000000000","ARG_OF_PERICENTER":"80.4872","FILE":"3115005","MEAN_MOTION_DOT":"-0.00010097","REF_FRAME":"TEME","SEMIMAJOR_AXIS":"6925.389","MEAN_ANOMALY":"186.6620","EPHEMERIS_TYPE":"0","TLE_LINE1":"1 48022U 21024AX  21256.91668981 -.00010097  00000-0 -66013-3 0  9997","SITE":"AFETR","INCLINATION":"53.0550","BSTAR":"-0.00066013000000","LAUNCH_DATE":"2021-03-24","CLASSIFICATION_TYPE":"U","PERIOD":"95.593","ECCENTRICITY":"0.00021410","TLE_LINE2":"2 48022  53.0550 123.8705 0002141  80.4872 186.6620 15.06386898  3601","APOAPSIS":"548.736","MEAN_MOTION":"15.06386898","RCS_SIZE":"LARGE","EPOCH":"2021-09-13T22:00:01.999584","DECAY_DATE":null,"MEAN_ELEMENT_THEORY":"SGP4","GP_ID":"184664583","PERIAPSIS":"545.771","OBJECT_TYPE":"PAYLOAD","REV_AT_EPOCH":"360","OBJECT_NAME":"STARLINK-2298","TIME_SYSTEM":"UTC"},{"ELEMENT_SET_NO":"999","RA_OF_ASC_NODE":"123.8569","COUNTRY_CODE":"US","MEAN_MOTION_DDOT":"0.0000000000000","FILE":"3115005","ARG_OF_PERICENTER":"77.6112","OBJECT_ID":"2021-024AY","CENTER_NAME":"EARTH","NORAD_CAT_ID":"48023","TLE_LINE1":"1 48023U 21024AY  21256.91668981 -.00010628  00000-0 -69577-3 0  9996","SITE":"AFETR","INCLINATION":"53.0530","BSTAR":"-0.00069577000000","LAUNCH_DATE":"2021-03-24","CLASSIFICATION_TYPE":"U","PERIOD":"95.593","MEAN_MOTION_DOT":"-0.00010628","REF_FRAME":"TEME","SEMIMAJOR_AXIS":"6925.368","EPHEMERIS_TYPE":"0","MEAN_ANOMALY":"104.4245","APOAPSIS":"548.511","MEAN_MOTION":"15.06393579","ECCENTRICITY":"0.00018450","TLE_LINE2":"2 48023  53.0530 123.8569 0001845  77.6112 104.4245 15.06393579  3619","GP_ID":"184663348","PERIAPSIS":"545.956","OBJECT_TYPE":"PAYLOAD","REV_AT_EPOCH":"361","OBJECT_NAME":"STARLINK-2292","TIME_SYSTEM":"UTC","RCS_SIZE":"LARGE","EPOCH":"2021-09-13T22:00:01.999584","DECAY_DATE":null,"MEAN_ELEMENT_THEORY":"SGP4"},{"ARG_OF_PERICENTER":"354.7640","FILE":"3115005","RA_OF_ASC_NODE":"61.8966","COUNTRY_CODE":"US","ELEMENT_SET_NO":"999","MEAN_MOTION_DDOT":"0.0000000000000","CENTER_NAME":"EARTH","NORAD_CAT_ID":"48024","OBJECT_ID":"2021-024AZ","BSTAR":"0.00406420000000","LAUNCH_DATE":"2021-03-24","PERIOD":"91.378","CLASSIFICATION_TYPE":"U","SITE":"AFETR","TLE_LINE1":"1 48024U 21024AZ  21256.91668981  .00695080  00000-0  40642-2 0  9997","INCLINATION":"53.0545","MEAN_ANOMALY":"12.3281","EPHEMERIS_TYPE":"0","REF_FRAME":"TEME","SEMIMAJOR_AXIS":"6720.302","MEAN_MOTION_DOT":"0.00695080","MEAN_MOTION":"15.75867026","APOAPSIS":"345.408","ECCENTRICITY":"0.00048220","TLE_LINE2":"2 48024  53.0545  61.8966 0004822 354.7640  12.3281 15.75867026  3752","REV_AT_EPOCH":"375","TIME_SYSTEM":"UTC","OBJECT_NAME":"STARLINK-2302","GP_ID":"184663598","OBJECT_TYPE":"PAYLOAD","PERIAPSIS":"338.927","MEAN_ELEMENT_THEORY":"SGP4","DECAY_DATE":null,"RCS_SIZE":"LARGE","EPOCH":"2021-09-13T22:00:01.999584"},{"ECCENTRICITY":"0.00059500","TLE_LINE2":"2 48025  53.0545  61.8927 0005950 307.4888  60.2403 15.75870135  3711","APOAPSIS":"346.157","MEAN_MOTION":"15.75870135","DECAY_DATE":null,"RCS_SIZE":"LARGE","EPOCH":"2021-09-13T22:00:01.999584","MEAN_ELEMENT_THEORY":"SGP4","GP_ID":"184664350","OBJECT_TYPE":"PAYLOAD","PERIAPSIS":"338.160","REV_AT_EPOCH":"371","TIME_SYSTEM":"UTC","OBJECT_NAME":"STARLINK-2318","OBJECT_ID":"2021-024BA","CENTER_NAME":"EARTH","NORAD_CAT_ID":"48025","RA_OF_ASC_NODE":"61.8927","COUNTRY_CODE":"US","ELEMENT_SET_NO":"999","MEAN_MOTION_DDOT":"0.0000000000000","FILE":"3115005","ARG_OF_PERICENTER":"307.4888","MEAN_MOTION_DOT":"0.00688429","MEAN_ANOMALY":"60.2403","EPHEMERIS_TYPE":"0","REF_FRAME":"TEME","SEMIMAJOR_AXIS":"6720.293","SITE":"AFETR","TLE_LINE1":"1 48025U 21024BA  21256.91668981  .00688429  00000-0  40275-2 0  9999","INCLINATION":"53.0545","BSTAR":"0.00402750000000","LAUNCH_DATE":"2021-03-24","CLASSIFICATION_TYPE":"U","PERIOD":"91.378"},{"MEAN_MOTION_DOT":"-0.00016295","SEMIMAJOR_AXIS":"6930.353","REF_FRAME":"TEME","MEAN_ANOMALY":"283.8156","EPHEMERIS_TYPE":"0","INCLINATION":"53.0520","TLE_LINE1":"1 48026U 21024BB  21256.91668981 -.00016295  00000-0 -11261-2 0  9991","SITE":"AFETR","PERIOD":"95.696","CLASSIFICATION_TYPE":"U","LAUNCH_DATE":"2021-03-24","BSTAR":"-0.00112610000000","OBJECT_ID":"2021-024BB","NORAD_CAT_ID":"48026","CENTER_NAME":"EARTH","MEAN_MOTION_DDOT":"0.0000000000000","ELEMENT_SET_NO":"999","RA_OF_ASC_NODE":"129.0089","COUNTRY_CODE":"US","FILE":"3115005","ARG_OF_PERICENTER":"75.6372","EPOCH":"2021-09-13T22:00:01.999584","RCS_SIZE":"LARGE","DECAY_DATE":null,"MEAN_ELEMENT_THEORY":"SGP4","PERIAPSIS":"550.567","OBJECT_TYPE":"PAYLOAD","GP_ID":"184664083","OBJECT_NAME":"STARLINK-2278","TIME_SYSTEM":"UTC","REV_AT_EPOCH":"361","TLE_LINE2":"2 48026  53.0520 129.0089 0002383  75.6372 283.8156 15.04768575  3613","ECCENTRICITY":"0.00023830","APOAPSIS":"553.870","MEAN_MOTION":"15.04768575"}];
